[{"OBJECT_NAME":"STARLINK-4263","OBJECT_ID":"2022-076AA","EPOCH":"2026-03-09T08:46:20.429472","MEAN_MOTION":15.08835366,"ECCENTRICITY":0.0001237,"INCLINATION":53.2165,"RA_OF_ASC_NODE":95.3058,"ARG_OF_PERICENTER":86.3331,"MEAN_ANOMALY":273.7803,"EPHEMERIS_TYPE":0,"CLASSIFICATION_TYPE":"U","NORAD_CAT_ID":53010,"ELEMENT_SET_NO":999,"REV_AT_EPOCH":20280,"BSTAR":2.0560941e-5,"MEAN_MOTION_DOT":3.9e-7,"MEAN_MOTION_DDOT":0},{"OBJECT_NAME":"PSLV R\/B","OBJECT_ID":"2010-035F","EPOCH":"2026-03-09T21:32:02.806944","MEAN_MOTION":15.11637156,"ECCENTRICITY":0.00120112,"INCLINATION":97.9796,"RA_OF_ASC_NODE":355.2302,"ARG_OF_PERICENTER":197.9598,"MEAN_ANOMALY":162.1208,"EPHEMERIS_TYPE":0,"CLASSIFICATION_TYPE":"U","NORAD_CAT_ID":36800,"ELEMENT_SET_NO":999,"REV_AT_EPOCH":85407,"BSTAR":0.00037264097,"MEAN_MOTION_DOT":6.275e-5,"MEAN_MOTION_DDOT":0}]
